[{"OBJECT_NAME":"HAIYANG-1B","OBJECT_ID":"2007-010A","EPOCH":"2026-03-09T22:15:19.251360","MEAN_MOTION":14.3099952,"ECCENTRICITY":0.00143047,"INCLINATION":98.343,"RA_OF_ASC_NODE":54.6595,"ARG_OF_PERICENTER":132.0498,"MEAN_ANOMALY":228.1905,"EPHEMERIS_TYPE":0,"CLASSIFICATION_TYPE":"U","NORAD_CAT_ID":31113,"ELEMENT_SET_NO":999,"REV_AT_EPOCH":98643,"BSTAR":7.2604842e-5,"MEAN_MOTION_DOT":1.5e-6,"MEAN_MOTION_DDOT":0},{"OBJECT_NAME":"FENGYUN 1C DEB","OBJECT_ID":"1999-025VX","EPOCH":"2026-03-09T11:04:11.199072","MEAN_MOTION":14.3172338,"ECCENTRICITY":0.00232891,"INCLINATION":98.713,"RA_OF_ASC_NODE":146.947,"ARG_OF_PERICENTER":147.5766,"MEAN_ANOMALY":344.8933,"EPHEMERIS_TYPE":0,"CLASSIFICATION_TYPE":"U","NORAD_CAT_ID":30214,"ELEMENT_SET_NO":999,"REV_AT_EPOCH":98807,"BSTAR":0.0016656363,"MEAN_MOTION_DOT":4.416e-5,"MEAN_MOTION_DDOT":0}]
